{
  "type": "FeatureCollection",
  "features": [
    {
      "type": "Feature",
      "properties": {
        "norad_id": 66871,
        "name": "STARLINK-36095",
        "group": "last-30-days",
        "lat": -26.030866436483578,
        "lon": -60.24369089399129,
        "alt_km": 346.5278195449746,
        "timestamp": "2025-12-18T07:01:53.342091+00:00",
        "meta_object_name": "STARLINK-36095",
        "meta_object_id": "2025-281Z",
        "meta_epoch": "2025-12-17T22:00:01.999584",
        "meta_mean_motion": 15.75068555,
        "meta_eccentricity": 0.0001733,
        "meta_inclination": 43.0009,
        "meta_ra_of_asc_node": 90.4314,
        "meta_arg_of_pericenter": 287.3144,
        "meta_mean_anomaly": 316.4602,
        "meta_ephemeris_type": 0,
        "meta_classification_type": "U",
        "meta_norad_cat_id": 66871,
        "meta_element_set_no": 999,
        "meta_rev_at_epoch": 226,
        "meta_bstar": -0.00020742247,
        "meta_mean_motion_dot": -0.0003226,
        "meta_mean_motion_ddot": 0,
        "tle_line1": "1 66871U 25281Z   25351.91668981 -.00032260  00000+0 -20742-3 0  9992",
        "tle_line2": "2 66871  43.0009  90.4314 0001733 287.3144 316.4602 15.75068555  2269"
      },
      "geometry": {
        "type": "Point",
        "coordinates": [
          -60.24369089399129,
          -26.030866436483578
        ]
      }
    },
    {
      "type": "Feature",
      "properties": {
        "norad_id": 66872,
        "name": "STARLINK-36082",
        "group": "last-30-days",
        "lat": -27.12722869114941,
        "lon": -58.504537533853124,
        "alt_km": 346.28180893226545,
        "timestamp": "2025-12-18T07:01:53.342101+00:00",
        "meta_object_name": "STARLINK-36082",
        "meta_object_id": "2025-281AA",
        "meta_epoch": "2025-12-17T22:00:01.999584",
        "meta_mean_motion": 15.75061475,
        "meta_eccentricity": 0.00016026,
        "meta_inclination": 43.0009,
        "meta_ra_of_asc_node": 90.4266,
        "meta_arg_of_pericenter": 268.0932,
        "meta_mean_anomaly": 337.5864,
        "meta_ephemeris_type": 0,
        "meta_classification_type": "U",
        "meta_norad_cat_id": 66872,
        "meta_element_set_no": 999,
        "meta_rev_at_epoch": 213,
        "meta_bstar": -0.00010559521,
        "meta_mean_motion_dot": -0.00016682,
        "meta_mean_motion_ddot": 0,
        "tle_line1": "1 66872U 25281AA  25351.91668981 -.00016682  00000+0 -10560-3 0  9990",
        "tle_line2": "2 66872  43.0009  90.4266 0001602 268.0932 337.5864 15.75061475  2136"
      },
      "geometry": {
        "type": "Point",
        "coordinates": [
          -58.504537533853124,
          -27.12722869114941
        ]
      }
    },
    {
      "type": "Feature",
      "properties": {
        "norad_id": 66873,
        "name": "STARLINK-36128",
        "group": "last-30-days",
        "lat": -30.2885573922653,
        "lon": -53.058144696777944,
        "alt_km": 346.1055812017803,
        "timestamp": "2025-12-18T07:01:53.342110+00:00",
        "meta_object_name": "STARLINK-36128",
        "meta_object_id": "2025-281AB",
        "meta_epoch": "2025-12-17T22:00:01.999584",
        "meta_mean_motion": 15.75041209,
        "meta_eccentricity": 0.00020454,
        "meta_inclination": 43.0009,
        "meta_ra_of_asc_node": 90.4115,
        "meta_arg_of_pericenter": 268.5408,
        "meta_mean_anomaly": 342.8746,
        "meta_ephemeris_type": 0,
        "meta_classification_type": "U",
        "meta_norad_cat_id": 66873,
        "meta_element_set_no": 999,
        "meta_rev_at_epoch": 226,
        "meta_bstar": 0.00037950295,
        "meta_mean_motion_dot": 0.00058228,
        "meta_mean_motion_ddot": 0,
        "tle_line1": "1 66873U 25281AB  25351.91668981  .00058228  00000+0  37950-3 0  9993",
        "tle_line2": "2 66873  43.0009  90.4115 0002045 268.5408 342.8746 15.75041209  2260"
      },
      "geometry": {
        "type": "Point",
        "coordinates": [
          -53.058144696777944,
          -30.2885573922653
        ]
      }
    },
    {
      "type": "Feature",
      "properties": {
        "norad_id": 66874,
        "name": "STARLINK-36129",
        "group": "last-30-days",
        "lat": -28.20856420123631,
        "lon": -56.7200150191801,
        "alt_km": 346.22183797087655,
        "timestamp": "2025-12-18T07:01:53.342120+00:00",
        "meta_object_name": "STARLINK-36129",
        "meta_object_id": "2025-281AC",
        "meta_epoch": "2025-12-17T22:00:01.999584",
        "meta_mean_motion": 15.75052877,
        "meta_eccentricity": 0.00021121,
        "meta_inclination": 43.001,
        "meta_ra_of_asc_node": 90.4214,
        "meta_arg_of_pericenter": 275.2571,
        "meta_mean_anomaly": 332.3523,
        "meta_ephemeris_type": 0,
        "meta_classification_type": "U",
        "meta_norad_cat_id": 66874,
        "meta_element_set_no": 999,
        "meta_rev_at_epoch": 226,
        "meta_bstar": 6.59789e-07,
        "meta_mean_motion_dot": -3.77e-06,
        "meta_mean_motion_ddot": 0,
        "tle_line1": "1 66874U 25281AC  25351.91668981 -.00000377  00000+0  65979-6 0  9992",
        "tle_line2": "2 66874  43.0010  90.4214 0002112 275.2571 332.3523 15.75052877  2264"
      },
      "geometry": {
        "type": "Point",
        "coordinates": [
          -56.7200150191801,
          -28.20856420123631
        ]
      }
    },
    {
      "type": "Feature",
      "properties": {
        "norad_id": 66875,
        "name": "STARLINK-36053",
        "group": "last-30-days",
        "lat": -31.302667909967756,
        "lon": -51.14442167033115,
        "alt_km": 346.63952115372103,
        "timestamp": "2025-12-18T07:01:53.342132+00:00",
        "meta_object_name": "STARLINK-36053",
        "meta_object_id": "2025-281AD",
        "meta_epoch": "2025-12-17T22:00:01.999584",
        "meta_mean_motion": 15.75090602,
        "meta_eccentricity": 0.000165,
        "meta_inclination": 43.0009,
        "meta_ra_of_asc_node": 90.4061,
        "meta_arg_of_pericenter": 279.7648,
        "meta_mean_anomaly": 333.5895,
        "meta_ephemeris_type": 0,
        "meta_classification_type": "U",
        "meta_norad_cat_id": 66875,
        "meta_element_set_no": 999,
        "meta_rev_at_epoch": 226,
        "meta_bstar": -0.00050164826,
        "meta_mean_motion_dot": -0.0007701,
        "meta_mean_motion_ddot": 0,
        "tle_line1": "1 66875U 25281AD  25351.91668981 -.00077010  00000+0 -50165-3 0  9990",
        "tle_line2": "2 66875  43.0009  90.4061 0001650 279.7648 333.5895 15.75090602  2266"
      },
      "geometry": {
        "type": "Point",
        "coordinates": [
          -51.14442167033115,
          -31.302667909967756
        ]
      }
    },
    {
      "type": "Feature",
      "properties": {
        "norad_id": 66876,
        "name": "STARLINK-35702",
        "group": "last-30-days",
        "lat": -29.2014594189905,
        "lon": -55.01220165410983,
        "alt_km": 346.0652828422135,
        "timestamp": "2025-12-18T07:01:53.342142+00:00",
        "meta_object_name": "STARLINK-35702",
        "meta_object_id": "2025-281AE",
        "meta_epoch": "2025-12-17T22:00:01.999584",
        "meta_mean_motion": 15.74992243,
        "meta_eccentricity": 0.00023335,
        "meta_inclination": 43.0007,
        "meta_ra_of_asc_node": 90.4166,
        "meta_arg_of_pericenter": 268.479,
        "meta_mean_anomaly": 340.9831,
        "meta_ephemeris_type": 0,
        "meta_classification_type": "U",
        "meta_norad_cat_id": 66876,
        "meta_element_set_no": 999,
        "meta_rev_at_epoch": 226,
        "meta_bstar": 0.00040176925,
        "meta_mean_motion_dot": 0.00061566,
        "meta_mean_motion_ddot": 0,
        "tle_line1": "1 66876U 25281AE  25351.91668981  .00061566  00000+0  40177-3 0  9990",
        "tle_line2": "2 66876  43.0007  90.4166 0002333 268.4790 340.9831 15.74992243  2266"
      },
      "geometry": {
        "type": "Point",
        "coordinates": [
          -55.01220165410983,
          -29.2014594189905
        ]
      }
    },
    {
      "type": "Feature",
      "properties": {
        "norad_id": 66877,
        "name": "ZQ-3 R/B",
        "group": "last-30-days",
        "lat": 56.80503333917583,
        "lon": 131.87458382141483,
        "alt_km": 1006.2075165322767,
        "timestamp": "2025-12-18T07:01:53.342153+00:00",
        "meta_object_name": "ZQ-3 R/B",
        "meta_object_id": "2025-282A",
        "meta_epoch": "2025-12-17T20:45:48.147840",
        "meta_mean_motion": 14.70026995,
        "meta_eccentricity": 0.07353249,
        "meta_inclination": 56.9501,
        "meta_ra_of_asc_node": 37.8964,
        "meta_arg_of_pericenter": 228.9125,
        "meta_mean_anomaly": 124.613,
        "meta_ephemeris_type": 0,
        "meta_classification_type": "U",
        "meta_norad_cat_id": 66877,
        "meta_element_set_no": 999,
        "meta_rev_at_epoch": 214,
        "meta_bstar": 0.0001861662,
        "meta_mean_motion_dot": 0.00992816,
        "meta_mean_motion_ddot": 7.666537e-06,
        "tle_line1": "1 66877U 25282A   25351.86514060  .00992816  76665-5  18617-3 0  9995",
        "tle_line2": "2 66877  56.9501  37.8964 0735324 228.9125 124.6130 14.70026995  2149"
      },
      "geometry": {
        "type": "Point",
        "coordinates": [
          131.87458382141483,
          56.80503333917583
        ]
      }
    }
  ]
}